OSCAR 7 (AO-7)          
1 07530U 74089B   26166.56100884 -.00000033  00000+0  83750-4 0  9999
2 07530 101.9901 179.7907 0012550 133.1072 351.4237 12.53698117360319
PHASE 3B (AO-10)        
1 14129U 83058B   26166.42721388  .00000161  00000+0  00000+0 0  9993
2 14129  25.9108 219.8563 6011456 115.1838 317.1369  2.05868643295455
UOSAT 2 (UO-11)         
1 14781U 84021B   26166.40912682  .00001009  00000+0  10828-3 0  9990
2 14781  97.8057 132.0037 0007470 178.4123 181.7120 14.90779245256864
LUSAT (LO-19)           
1 20442U 90005G   26166.50751370  .00000096  00000+0  51150-4 0  9995
2 20442  98.8851 188.2668 0011025 206.2341 153.8286 14.34122746902153
EYESAT A (AO-27)        
1 22825U 93061C   26166.18185475  .00000084  00000+0  48753-4 0  9990
2 22825  98.6881 233.5961 0009521 104.9010 255.3227 14.30941747706719
ITAMSAT (IO-26)         
1 22826U 93061D   26166.16186548  .00000083  00000+0  48145-4 0  9995
2 22826  98.6828 233.4933 0010091  90.3104 269.9235 14.31368614707027
RADIO ROSTO (RS15)      
1 23439U 94085A   26166.60826656 -.00000053  00000+0 -29520-3 0  9997
2 23439  64.8179 305.7698 0155903   4.1682 356.0502 11.27583472295726
JAS-2 (FO-29)           
1 24278U 96046B   26166.53668919  .00000013  00000+0  45334-4 0  9992
2 24278  98.5240  15.6350 0350881 100.7038 263.3808 13.53274267472943
TECHSAT 1B (GO-32)      
1 25397U 98043D   26166.58928680  .00000030  00000+0  32966-4 0  9999
2 25397  99.0067 159.3076 0000971 166.4736 193.6468 14.24428093451105
ISS (ZARYA)             
1 25544U 98067A   26166.51237796  .00007685  00000+0  14626-3 0  9998
2 25544  51.6337 308.3821 0004850 189.0196 171.0706 15.49243792571497
PCSAT (NO-44)           
1 26931U 01043C   26166.62271618  .00000084  00000+0  62366-4 0  9991
2 26931  67.0507 248.3182 0006076 264.5919  95.4489 14.31955610290220
SAUDISAT 1C (SO-50)     
1 27607U 02058C   26166.33462240  .00000861  00000+0  11895-3 0  9993
2 27607  64.5510 134.7172 0075306 262.8143  96.4397 14.83043230264184
CUTE-1 (CO-55)          
1 27844U 03031E   26166.49171906  .00000237  00000+0  12167-3 0  9991
2 27844  98.6736 175.0719 0009420 182.9125 177.2000 14.24334794191435
CUBESAT XI-IV (CO-57)   
1 27848U 03031J   26166.47932631  .00000199  00000+0  10658-3 0  9993
2 27848  98.6767 174.7737 0008908 202.2653 157.8140 14.23619986191135
MOZHAETS 4 (RS22)       
1 27939U 03042A   26166.65533953  .00000810  00000+0  13307-3 0  9994
2 27939  98.3461 350.9709 0009957 275.3429 172.8997 14.73465436215327
CUBESAT XI-V            
1 28895U 05043F   26166.36421164  .00001202  00000+0  19691-3 0  9995
2 28895  98.2983 321.9478 0013522 206.7180 153.3331 14.72627055101486
CUTE-1.7+APD II (CO-65) 
1 32785U 08021C   26166.59150092  .00003848  00000+0  24445-3 0  9992
2 32785  97.8271 147.9768 0009975  44.1299 316.0723 15.09439257984954
SEEDS II (CO-66)        
1 32791U 08021J   26166.56872795  .00015199  00000+0  48345-3 0  9994
2 32791  97.7511 164.3889 0001297   9.9046 350.2220 15.32704207987043
YUBILEINY (RS30)        
1 32953U 08025A   26166.56937948  .00000093  00000+0  60035-3 0  9997
2 32953  82.5039 356.4473 0018919 317.5762  42.3854 12.43179648819494
KKS-1 (KISEKI)          
1 33499U 09002H   26166.56994226  .00001162  00000+0  14942-3 0  9995
2 33499  98.1190  88.9865 0006614 302.1510  57.9061 14.83120405935958
SWISSCUBE               
1 35932U 09051B   26166.25297169  .00000842  00000+0  17592-3 0  9999
2 35932  98.4038  74.1075 0005844 209.7614 150.3255 14.62478329888876
BEESAT-1                
1 35933U 09051C   26166.46675995  .00000703  00000+0  15091-3 0  9998
2 35933  98.3966  73.9642 0004133 223.5476 136.5399 14.61718018888936
ITUPSAT1                
1 35935U 09051E   26166.45614387  .00000634  00000+0  14088-3 0  9995
2 35935  98.4051  73.1472 0006197 240.3357 119.7226 14.60438270888484
XIWANG-1 (HOPE-1)       
1 36122U 09072B   26166.57190135 -.00000409  00000+0 -95495-3 0  9993
2 36122 100.4024 120.4297 0006853 235.6610 124.3855 13.16437666792792
O/OREOS (USA 219)       
1 37224U 10062C   26166.18705999  .00002000  00000+0  19439-3 0  9996
2 37224  71.9714  84.8700 0012504  67.4228 292.8264 14.93736891116346
JUGNU                   
1 37839U 11058B   26166.12908786  .00000399  00000+0  69103-4 0  9990
2 37839  19.9618 320.9329 0018627  53.5996 113.0994 14.13776231758737
SRMSAT                  
1 37841U 11058D   26166.09346315  .00000356  00000+0  49299-4 0  9990
2 37841  19.9720  72.1399 0011838 180.5594 207.7984 14.11575160757521
STRAND-1                
1 39090U 13009E   26166.45470669  .00000220  00000+0  88443-4 0  9990
2 39090  98.3921 346.7318 0007647 231.1589 128.8916 14.37162360696818
ZACUBE-1 (TSHEPISOSAT)  
1 39417U 13066B   26166.40761859  .00002611  00000+0  20511-3 0  9992
2 39417  97.8082 128.7351 0040604 253.8926 105.7825 15.01179836680469
GOMX-1                  
1 39430U 13066Q   26166.61981649  .00001915  00000+0  29130-3 0  9993
2 39430  97.6479   7.1816 0130160  82.5196 279.0777 14.69456470669688
